{
  "norad_id": 67410,
  "name": "STARLINK-36508",
  "history": [
    {
      "epoch": "2026-04-15T12:16:58.673280Z",
      "apogee_km": 484.2141357891587,
      "perigee_km": 481.84977696679107,
      "latitude_deg": 2.0841249634522376e-05,
      "longitude_deg": 2.489950681103957,
      "height_km": 482.952022242276,
      "semi_major_axis_km": 6861.168956377975,
      "eccentricity": 0.0001723,
      "inclination_deg": 43.0044,
      "raan_deg": 30.4072,
      "arg_perigee_deg": 263.0696,
      "mean_anomaly_deg": 96.996,
      "mean_motion_rev_day": 15.27585724
    },
    {
      "epoch": "2026-04-16T11:49:19.680096Z",
      "apogee_km": 483.68893603143624,
      "perigee_km": 482.3976618991701,
      "latitude_deg": 1.021992285765178e-05,
      "longitude_deg": 2.8958935624270947,
      "height_km": 482.82392159766334,
      "semi_major_axis_km": 6861.180298965302,
      "eccentricity": 9.41e-05,
      "inclination_deg": 43.0052,
      "raan_deg": 24.8674,
      "arg_perigee_deg": 269.6683,
      "mean_anomaly_deg": 90.4061,
      "mean_motion_rev_day": 15.27581936
    },
    {
      "epoch": "2026-04-17T22:20:46.197600Z",
      "apogee_km": 483.65761454486164,
      "perigee_km": 482.3845952700776,
      "latitude_deg": 3.0325316896374273e-06,
      "longitude_deg": -164.50535330336285,
      "height_km": 482.9823602201449,
      "semi_major_axis_km": 6861.158104907469,
      "eccentricity": 9.277e-05,
      "inclination_deg": 43.0035,
      "raan_deg": 16.7445,
      "arg_perigee_deg": 253.1378,
      "mean_anomaly_deg": 106.9372,
      "mean_motion_rev_day": 15.27589348
    },
    {
      "epoch": "2026-04-18T10:54:00.974016Z",
      "apogee_km": 484.2269781331761,
      "perigee_km": 481.7867437076011,
      "latitude_deg": 1.3194462916694075e-05,
      "longitude_deg": 3.712810454180934,
      "height_km": 482.9500603301602,
      "semi_major_axis_km": 6861.143860920389,
      "eccentricity": 0.00017783,
      "inclination_deg": 43.004,
      "raan_deg": 13.7898,
      "arg_perigee_deg": 262.1906,
      "mean_anomaly_deg": 97.8744,
      "mean_motion_rev_day": 15.27594105
    },
    {
      "epoch": "2026-04-19T10:26:21.420960Z",
      "apogee_km": 483.96984562037414,
      "perigee_km": 482.05119432788797,
      "latitude_deg": -1.4776852560608888e-05,
      "longitude_deg": 4.118471561601108,
      "height_km": 483.1619398041526,
      "semi_major_axis_km": 6861.147519974131,
      "eccentricity": 0.00013982,
      "inclination_deg": 43.0031,
      "raan_deg": 8.2474,
      "arg_perigee_deg": 247.0207,
      "mean_anomaly_deg": 113.0497,
      "mean_motion_rev_day": 15.27592883
    },
    {
      "epoch": "2026-04-20T09:58:43.191552Z",
      "apogee_km": 484.1193142829643,
      "perigee_km": 482.0239011741651,
      "latitude_deg": -2.581218336470038e-05,
      "longitude_deg": 4.525519352023832,
      "height_km": 483.1912919480547,
      "semi_major_axis_km": 6861.208607728565,
      "eccentricity": 0.0001527,
      "inclination_deg": 43.0059,
      "raan_deg": 2.7119,
      "arg_perigee_deg": 250.9286,
      "mean_anomaly_deg": 109.14,
      "mean_motion_rev_day": 15.27572482
    },
    {
      "epoch": "2026-04-21T09:31:03.711936Z",
      "apogee_km": 484.0848540115312,
      "perigee_km": 481.8645982569533,
      "latitude_deg": -5.031978233848891e-05,
      "longitude_deg": 4.934675529059889,
      "height_km": 482.8924456767154,
      "semi_major_axis_km": 6861.1117261342415,
      "eccentricity": 0.0001618,
      "inclination_deg": 43.0009,
      "raan_deg": 357.1733,
      "arg_perigee_deg": 262.7151,
      "mean_anomaly_deg": 97.3516,
      "mean_motion_rev_day": 15.27604837
    },
    {
      "epoch": "2026-04-21T23:38:28.135968Z",
      "apogee_km": 483.74122917522436,
      "perigee_km": 482.2643002294735,
      "latitude_deg": 1.9363737729516636e-05,
      "longitude_deg": 149.18175196911076,
      "height_km": 482.83570572076576,
      "semi_major_axis_km": 6861.139764702349,
      "eccentricity": 0.00010763,
      "inclination_deg": 43.0054,
      "raan_deg": 353.8521,
      "arg_perigee_deg": 265.6566,
      "mean_anomaly_deg": 94.4163,
      "mean_motion_rev_day": 15.27595473
    },
    {
      "epoch": "2026-04-22T23:10:49.164384Z",
      "apogee_km": 484.08354796831736,
      "perigee_km": 481.9870481609205,
      "latitude_deg": 1.3409393085233227e-05,
      "longitude_deg": 149.58590528814565,
      "height_km": 482.75338788770944,
      "semi_major_axis_km": 6861.172298064618,
      "eccentricity": 0.00015278,
      "inclination_deg": 43.001,
      "raan_deg": 348.3106,
      "arg_perigee_deg": 273.2174,
      "mean_anomaly_deg": 86.8503,
      "mean_motion_rev_day": 15.27584608
    },
    {
      "epoch": "2026-04-24T08:08:06.144000Z",
      "apogee_km": 483.37976034222993,
      "perigee_km": 482.69638730487713,
      "latitude_deg": 1.3725830661723804e-05,
      "longitude_deg": 6.15505294043104,
      "height_km": 482.7858554954522,
      "semi_major_axis_km": 6861.175073823553,
      "eccentricity": 4.98e-05,
      "inclination_deg": 43.0047,
      "raan_deg": 340.5539,
      "arg_perigee_deg": 274.8084,
      "mean_anomaly_deg": 85.2711,
      "mean_motion_rev_day": 15.27583681
    },
    {
      "epoch": "2026-04-25T07:40:27.022080Z",
      "apogee_km": 483.3886796521638,
      "perigee_km": 482.62297611257145,
      "latitude_deg": 1.1073041369270482e-05,
      "longitude_deg": 6.5649396645121065,
      "height_km": 482.5146019387239,
      "semi_major_axis_km": 6861.142827882368,
      "eccentricity": 5.58e-05,
      "inclination_deg": 43.0032,
      "raan_deg": 335.0175,
      "arg_perigee_deg": 314.3068,
      "mean_anomaly_deg": 45.7738,
      "mean_motion_rev_day": 15.2759445
    },
    {
      "epoch": "2026-04-26T21:20:13.168320Z",
      "apogee_km": 484.5456329416402,
      "perigee_km": 481.5880424153702,
      "latitude_deg": 2.1832208297428273e-05,
      "longitude_deg": 151.21441860210538,
      "height_km": 482.708218549424,
      "semi_major_axis_km": 6861.203837678505,
      "eccentricity": 0.00021553,
      "inclination_deg": 43.0027,
      "raan_deg": 326.156,
      "arg_perigee_deg": 275.2853,
      "mean_anomaly_deg": 84.7753,
      "mean_motion_rev_day": 15.27574075
    },
    {
      "epoch": "2026-04-27T20:52:33.851136Z",
      "apogee_km": 483.4093108890247,
      "perigee_km": 482.49404165961005,
      "latitude_deg": 4.8802485341537065e-05,
      "longitude_deg": 151.62225412991012,
      "height_km": 482.71133410334335,
      "semi_major_axis_km": 6861.088676274317,
      "eccentricity": 6.67e-05,
      "inclination_deg": 43.0041,
      "raan_deg": 320.6167,
      "arg_perigee_deg": 272.1101,
      "mean_anomaly_deg": 87.9675,
      "mean_motion_rev_day": 15.27612535
    },
    {
      "epoch": "2026-04-28T20:24:54.340416Z",
      "apogee_km": 483.8762460995995,
      "perigee_km": 482.16095719918667,
      "latitude_deg": -4.828396558713237e-05,
      "longitude_deg": 152.03116591318025,
      "height_km": 482.6774495294539,
      "semi_major_axis_km": 6861.155601649393,
      "eccentricity": 0.000125,
      "inclination_deg": 43.0006,
      "raan_deg": 315.0778,
      "arg_perigee_deg": 277.8951,
      "mean_anomaly_deg": 82.1758,
      "mean_motion_rev_day": 15.27590184
    },
    {
      "epoch": "2026-04-29T19:57:14.692320Z",
      "apogee_km": 484.08899133192426,
      "perigee_km": 481.86187423624324,
      "latitude_deg": 1.879567063269813e-05,
      "longitude_deg": 152.44092633383187,
      "height_km": 482.72326015771597,
      "semi_major_axis_km": 6861.1124327840835,
      "eccentricity": 0.0001623,
      "inclination_deg": 43.0028,
      "raan_deg": 309.539,
      "arg_perigee_deg": 271.5112,
      "mean_anomaly_deg": 88.5554,
      "mean_motion_rev_day": 15.27604601
    },
    {
      "epoch": "2026-04-29T21:31:24.039264Z",
      "apogee_km": 483.90572157331553,
      "perigee_km": 482.08340503010186,
      "latitude_deg": -7.08469529641342e-06,
      "longitude_deg": 128.46840581017477,
      "height_km": 482.6870137343049,
      "semi_major_axis_km": 6861.131563301708,
      "eccentricity": 0.0001328,
      "inclination_deg": 43.0025,
      "raan_deg": 309.1699,
      "arg_perigee_deg": 275.3197,
      "mean_anomaly_deg": 84.7503,
      "mean_motion_rev_day": 15.27598212
    },
    {
      "epoch": "2026-05-02T04:26:52.952640Z",
      "apogee_km": 483.44172800751403,
      "perigee_km": 482.75148790655385,
      "latitude_deg": 2.245453639417978e-05,
      "longitude_deg": 9.415185512721132,
      "height_km": 482.648194704245,
      "semi_major_axis_km": 6861.233607957033,
      "eccentricity": 5.03e-05,
      "inclination_deg": 42.9983,
      "raan_deg": 296.2428,
      "arg_perigee_deg": 310.4793,
      "mean_anomaly_deg": 49.6015,
      "mean_motion_rev_day": 15.27564133
    },
    {
      "epoch": "2026-05-03T18:06:38.170080Z",
      "apogee_km": 483.9826938625911,
      "perigee_km": 482.0245243327545,
      "latitude_deg": -1.2978674752906134e-05,
      "longitude_deg": 154.06639124330505,
      "height_km": 482.5895200982203,
      "semi_major_axis_km": 6861.1406090976725,
      "eccentricity": 0.0001427,
      "inclination_deg": 43.0006,
      "raan_deg": 287.3792,
      "arg_perigee_deg": 281.2425,
      "mean_anomaly_deg": 78.8266,
      "mean_motion_rev_day": 15.27595191
    }
  ]
}